CCSDS_OMM_VERS = 2.0
CREATION_DATE  = 
ORIGINATOR     = 

OBJECT_NAME    = STARLINK-37041
OBJECT_ID      = 2026-044D
CENTER_NAME    = EARTH
REF_FRAME      = TEME
TIME_SYSTEM    = UTC
MEAN_ELEMENT_THEORY = SGP/SGP4

EPOCH          = 2026-03-20T04:00:01.999584
MEAN_MOTION    = 15.80934755
ECCENTRICITY   = .00013618
INCLINATION    = 97.2843
RA_OF_ASC_NODE = 39.8173
ARG_OF_PERICENTER = 98.3959
MEAN_ANOMALY   = 92.2965

EPHEMERIS_TYPE = 0
CLASSIFICATION_TYPE = U
NORAD_CAT_ID   = 68104
ELEMENT_SET_NO = 999
REV_AT_EPOCH   = 303
BSTAR          = -.18149618E-2
MEAN_MOTION_DOT = -.336573E-2
MEAN_MOTION_DDOT = 0

CCSDS_OMM_VERS = 2.0
CREATION_DATE  = 
ORIGINATOR     = 

OBJECT_NAME    = STARLINK-37021
OBJECT_ID      = 2026-044E
CENTER_NAME    = EARTH
REF_FRAME      = TEME
TIME_SYSTEM    = UTC
MEAN_ELEMENT_THEORY = SGP/SGP4

EPOCH          = 2026-03-20T04:00:01.999584
MEAN_MOTION    = 15.80719214
ECCENTRICITY   = .00009975
INCLINATION    = 97.2838
RA_OF_ASC_NODE = 39.8179
ARG_OF_PERICENTER = 158.9668
MEAN_ANOMALY   = 35.9802

EPHEMERIS_TYPE = 0
CLASSIFICATION_TYPE = U
NORAD_CAT_ID   = 68105
ELEMENT_SET_NO = 999
REV_AT_EPOCH   = 303
BSTAR          = .90374229E-3
MEAN_MOTION_DOT = .175719E-2
MEAN_MOTION_DDOT = 0

CCSDS_OMM_VERS = 2.0
CREATION_DATE  = 
ORIGINATOR     = 

OBJECT_NAME    = STARLINK-37024
OBJECT_ID      = 2026-044F
CENTER_NAME    = EARTH
REF_FRAME      = TEME
TIME_SYSTEM    = UTC
MEAN_ELEMENT_THEORY = SGP/SGP4

EPOCH          = 2026-03-20T04:00:01.999584
MEAN_MOTION    = 15.80796047
ECCENTRICITY   = .00015252
INCLINATION    = 97.2841
RA_OF_ASC_NODE = 39.8202
ARG_OF_PERICENTER = 99.1739
MEAN_ANOMALY   = 100.0856

EPHEMERIS_TYPE = 0
CLASSIFICATION_TYPE = U
NORAD_CAT_ID   = 68106
ELEMENT_SET_NO = 999
REV_AT_EPOCH   = 303
BSTAR          = .31981236E-3
MEAN_MOTION_DOT = .61495E-3
MEAN_MOTION_DDOT = 0

CCSDS_OMM_VERS = 2.0
CREATION_DATE  = 
ORIGINATOR     = 

OBJECT_NAME    = STARLINK-37005
OBJECT_ID      = 2026-044G
CENTER_NAME    = EARTH
REF_FRAME      = TEME
TIME_SYSTEM    = UTC
MEAN_ELEMENT_THEORY = SGP/SGP4

EPOCH          = 2026-03-20T04:00:01.999584
MEAN_MOTION    = 15.80792084
ECCENTRICITY   = .00011534
INCLINATION    = 97.2841
RA_OF_ASC_NODE = 39.8148
ARG_OF_PERICENTER = 91.9976
MEAN_ANOMALY   = 94.4516

EPHEMERIS_TYPE = 0
CLASSIFICATION_TYPE = U
NORAD_CAT_ID   = 68107
ELEMENT_SET_NO = 999
REV_AT_EPOCH   = 303
BSTAR          = .21276418E-3
MEAN_MOTION_DOT = .40758E-3
MEAN_MOTION_DDOT = 0

CCSDS_OMM_VERS = 2.0
CREATION_DATE  = 
ORIGINATOR     = 

OBJECT_NAME    = STARLINK-37017
OBJECT_ID      = 2026-044H
CENTER_NAME    = EARTH
REF_FRAME      = TEME
TIME_SYSTEM    = UTC
MEAN_ELEMENT_THEORY = SGP/SGP4

EPOCH          = 2026-03-20T04:00:01.999584
MEAN_MOTION    = 15.80752555
ECCENTRICITY   = .00014714
INCLINATION    = 97.2842
RA_OF_ASC_NODE = 39.8224
ARG_OF_PERICENTER = 94.6321
MEAN_ANOMALY   = 108.8865

EPHEMERIS_TYPE = 0
CLASSIFICATION_TYPE = U
NORAD_CAT_ID   = 68108
ELEMENT_SET_NO = 999
REV_AT_EPOCH   = 303
BSTAR          = .74234105E-3
MEAN_MOTION_DOT = .144005E-2
MEAN_MOTION_DDOT = 0

CCSDS_OMM_VERS = 2.0
CREATION_DATE  = 
ORIGINATOR     = 

OBJECT_NAME    = STARLINK-36833
OBJECT_ID      = 2026-044J
CENTER_NAME    = EARTH
REF_FRAME      = TEME
TIME_SYSTEM    = UTC
MEAN_ELEMENT_THEORY = SGP/SGP4

EPOCH          = 2026-03-20T04:00:01.999584
MEAN_MOTION    = 15.80777755
ECCENTRICITY   = .00013129
INCLINATION    = 97.2836
RA_OF_ASC_NODE = 39.8249
ARG_OF_PERICENTER = 109.4781
MEAN_ANOMALY   = 102.6322

EPHEMERIS_TYPE = 0
CLASSIFICATION_TYPE = U
NORAD_CAT_ID   = 68109
ELEMENT_SET_NO = 999
REV_AT_EPOCH   = 308
BSTAR          = .26928725E-3
MEAN_MOTION_DOT = .51655E-3
MEAN_MOTION_DDOT = 0

CCSDS_OMM_VERS = 2.0
CREATION_DATE  = 
ORIGINATOR     = 

OBJECT_NAME    = STARLINK-36830
OBJECT_ID      = 2026-044K
CENTER_NAME    = EARTH
REF_FRAME      = TEME
TIME_SYSTEM    = UTC
MEAN_ELEMENT_THEORY = SGP/SGP4

EPOCH          = 2026-03-20T04:00:01.999584
MEAN_MOTION    = 15.80787234
ECCENTRICITY   = .00006745
INCLINATION    = 97.2839
RA_OF_ASC_NODE = 39.8234
ARG_OF_PERICENTER = 131.2310
MEAN_ANOMALY   = 76.5865

EPHEMERIS_TYPE = 0
CLASSIFICATION_TYPE = U
NORAD_CAT_ID   = 68110
ELEMENT_SET_NO = 999
REV_AT_EPOCH   = 308
BSTAR          = .33159367E-3
MEAN_MOTION_DOT = .63754E-3
MEAN_MOTION_DDOT = 0

CCSDS_OMM_VERS = 2.0
CREATION_DATE  = 
ORIGINATOR     = 

OBJECT_NAME    = STARLINK-36791
OBJECT_ID      = 2026-044L
CENTER_NAME    = EARTH
REF_FRAME      = TEME
TIME_SYSTEM    = UTC
MEAN_ELEMENT_THEORY = SGP/SGP4

EPOCH          = 2026-03-20T04:00:01.999584
MEAN_MOTION    = 15.80762378
ECCENTRICITY   = .00014535
INCLINATION    = 97.2838
RA_OF_ASC_NODE = 39.8271
ARG_OF_PERICENTER = 123.4945
MEAN_ANOMALY   = 92.8691

EPHEMERIS_TYPE = 0
CLASSIFICATION_TYPE = U
NORAD_CAT_ID   = 68111
ELEMENT_SET_NO = 999
REV_AT_EPOCH   = 303
BSTAR          = .58178272E-3
MEAN_MOTION_DOT = .112469E-2
MEAN_MOTION_DDOT = 0

CCSDS_OMM_VERS = 2.0
CREATION_DATE  = 
ORIGINATOR     = 

OBJECT_NAME    = STARLINK-36893
OBJECT_ID      = 2026-044M
CENTER_NAME    = EARTH
REF_FRAME      = TEME
TIME_SYSTEM    = UTC
MEAN_ELEMENT_THEORY = SGP/SGP4

EPOCH          = 2026-03-20T04:00:01.999584
MEAN_MOTION    = 15.80766647
ECCENTRICITY   = .0001175
INCLINATION    = 97.2836
RA_OF_ASC_NODE = 39.8289
ARG_OF_PERICENTER = 84.9145
MEAN_ANOMALY   = 135.7421

EPHEMERIS_TYPE = 0
CLASSIFICATION_TYPE = U
NORAD_CAT_ID   = 68112
ELEMENT_SET_NO = 999
REV_AT_EPOCH   = 308
BSTAR          = .43961113E-3
MEAN_MOTION_DOT = .84694E-3
MEAN_MOTION_DDOT = 0

CCSDS_OMM_VERS = 2.0
CREATION_DATE  = 
ORIGINATOR     = 

OBJECT_NAME    = STARLINK-36937
OBJECT_ID      = 2026-044N
CENTER_NAME    = EARTH
REF_FRAME      = TEME
TIME_SYSTEM    = UTC
MEAN_ELEMENT_THEORY = SGP/SGP4

EPOCH          = 2026-03-20T04:00:01.999584
MEAN_MOTION    = 15.80764270
ECCENTRICITY   = .00008216
INCLINATION    = 97.2836
RA_OF_ASC_NODE = 39.8324
ARG_OF_PERICENTER = 120.8674
MEAN_ANOMALY   = 108.3403

EPHEMERIS_TYPE = 0
CLASSIFICATION_TYPE = U
NORAD_CAT_ID   = 68113
ELEMENT_SET_NO = 999
REV_AT_EPOCH   = 303
BSTAR          = .42886055E-3
MEAN_MOTION_DOT = .82589E-3
MEAN_MOTION_DDOT = 0

CCSDS_OMM_VERS = 2.0
CREATION_DATE  = 
ORIGINATOR     = 

OBJECT_NAME    = STARLINK-36229
OBJECT_ID      = 2026-044P
CENTER_NAME    = EARTH
REF_FRAME      = TEME
TIME_SYSTEM    = UTC
MEAN_ELEMENT_THEORY = SGP/SGP4

EPOCH          = 2026-03-20T04:00:01.999584
MEAN_MOTION    = 15.80761157
ECCENTRICITY   = .00010033
INCLINATION    = 97.2834
RA_OF_ASC_NODE = 39.8298
ARG_OF_PERICENTER = 111.3800
MEAN_ANOMALY   = 113.5593

EPHEMERIS_TYPE = 0
CLASSIFICATION_TYPE = U
NORAD_CAT_ID   = 68114
ELEMENT_SET_NO = 999
REV_AT_EPOCH   = 308
BSTAR          = .47749661E-3
MEAN_MOTION_DOT = .92059E-3
MEAN_MOTION_DDOT = 0

CCSDS_OMM_VERS = 2.0
CREATION_DATE  = 
ORIGINATOR     = 

OBJECT_NAME    = STARLINK-36392
OBJECT_ID      = 2026-044Q
CENTER_NAME    = EARTH
REF_FRAME      = TEME
TIME_SYSTEM    = UTC
MEAN_ELEMENT_THEORY = SGP/SGP4

EPOCH          = 2026-03-20T04:00:01.999584
MEAN_MOTION    = 15.80767007
ECCENTRICITY   = .00012338
INCLINATION    = 97.2834
RA_OF_ASC_NODE = 39.8341
ARG_OF_PERICENTER = 96.6384
MEAN_ANOMALY   = 136.8531

EPHEMERIS_TYPE = 0
CLASSIFICATION_TYPE = U
NORAD_CAT_ID   = 68115
ELEMENT_SET_NO = 999
REV_AT_EPOCH   = 308
BSTAR          = .28439952E-3
MEAN_MOTION_DOT = .54553E-3
MEAN_MOTION_DDOT = 0

